STARLINK-35429          
1 66590U 25270C   25346.16668980  .00091995  00000+0  15574-2 0  9992
2 66590  42.9996 196.0852 0002231 257.0026 169.4178 15.50544278  4414
STARLINK-36058          
1 66591U 25270D   25346.16668980  .00097687  00000+0  16498-2 0  9993
2 66591  42.9996 196.0751 0002337 271.2604 159.0642 15.50585827  4304
STARLINK-36066          
1 66592U 25270E   25346.16668980 -.01032511  00000+0 -19104-1 0  9998
2 66592  42.9997 196.0703 0001763 264.2995 167.9245 15.50915682  4202
STARLINK-36031          
1 66593U 25270F   25346.16668980 -.00330707  00000+0 -58276-2 0  9990
2 66593  42.9997 196.0657 0001797 274.9536 159.2758 15.50792214  4305
STARLINK-36032          
1 66594U 25270G   25346.16668980  .00039259  00000+0  67250-3 0  9990
2 66594  42.9999 196.0608 0001970 275.6463 160.4902 15.50543396  4045
STARLINK-35711          
1 66595U 25270H   25346.16668980  .00093975  00000+0  15916-2 0  9997
2 66595  42.9997 196.0555 0001173 261.7315 176.1924 15.50525101  4415
STARLINK-35811          
1 66596U 25270J   25346.16668980 -.02030037  00000+0 -43243-1 0  9995
2 66596  42.9995 196.0605 0001728 264.3988 171.8740 15.47529413  4415
STARLINK-35820          
1 66597U 25270K   25346.16668980  .00058855  00000+0  10025-2 0  9993
2 66597  42.9996 196.0460 0001927 276.5208 165.3550 15.50551687  4416
STARLINK-35981          
1 66598U 25270L   25346.16668980  .00115964  00000+0  19600-2 0  9997
2 66598  42.9998 196.0409 0001684 269.5420 174.3325 15.50482660  4144
STARLINK-35930          
1 66599U 25270M   25346.16668980  .00035537  00000+0  60909-3 0  9994
2 66599  42.9997 196.0370 0000504 329.8662 115.7931 15.50566991  4309
STARLINK-35980          
1 66600U 25270N   25346.16668980  .00040920  00000+0  70056-3 0  9993
2 66600  42.9998 196.0319 0002384 276.9291 170.7081 15.50542336  4207
STARLINK-35978          
1 66601U 25270P   25346.16668980  .00056294  00000+0  95990-3 0  9999
2 66601  42.9997 196.0270 0001324 286.7778 162.7908 15.50537950  4143
