CCSDS_OMM_VERS = 2.0
CREATION_DATE  = 
ORIGINATOR     = 

OBJECT_NAME    = STARLINK-35429
OBJECT_ID      = 2025-270C
CENTER_NAME    = EARTH
REF_FRAME      = TEME
TIME_SYSTEM    = UTC
MEAN_ELEMENT_THEORY = SGP/SGP4

EPOCH          = 2025-12-12T04:00:01.998720
MEAN_MOTION    = 15.50544278
ECCENTRICITY   = .0002231
INCLINATION    = 42.9996
RA_OF_ASC_NODE = 196.0852
ARG_OF_PERICENTER = 257.0026
MEAN_ANOMALY   = 169.4178

EPHEMERIS_TYPE = 0
CLASSIFICATION_TYPE = U
NORAD_CAT_ID   = 66590
ELEMENT_SET_NO = 999
REV_AT_EPOCH   = 441
BSTAR          = .15574E-2
MEAN_MOTION_DOT = .91995E-3
MEAN_MOTION_DDOT = 0

CCSDS_OMM_VERS = 2.0
CREATION_DATE  = 
ORIGINATOR     = 

OBJECT_NAME    = STARLINK-36058
OBJECT_ID      = 2025-270D
CENTER_NAME    = EARTH
REF_FRAME      = TEME
TIME_SYSTEM    = UTC
MEAN_ELEMENT_THEORY = SGP/SGP4

EPOCH          = 2025-12-12T04:00:01.998720
MEAN_MOTION    = 15.50585827
ECCENTRICITY   = .0002337
INCLINATION    = 42.9996
RA_OF_ASC_NODE = 196.0751
ARG_OF_PERICENTER = 271.2604
MEAN_ANOMALY   = 159.0642

EPHEMERIS_TYPE = 0
CLASSIFICATION_TYPE = U
NORAD_CAT_ID   = 66591
ELEMENT_SET_NO = 999
REV_AT_EPOCH   = 430
BSTAR          = .16498E-2
MEAN_MOTION_DOT = .97687E-3
MEAN_MOTION_DDOT = 0

CCSDS_OMM_VERS = 2.0
CREATION_DATE  = 
ORIGINATOR     = 

OBJECT_NAME    = STARLINK-36066
OBJECT_ID      = 2025-270E
CENTER_NAME    = EARTH
REF_FRAME      = TEME
TIME_SYSTEM    = UTC
MEAN_ELEMENT_THEORY = SGP/SGP4

EPOCH          = 2025-12-12T04:00:01.998720
MEAN_MOTION    = 15.50915682
ECCENTRICITY   = .0001763
INCLINATION    = 42.9997
RA_OF_ASC_NODE = 196.0703
ARG_OF_PERICENTER = 264.2995
MEAN_ANOMALY   = 167.9245

EPHEMERIS_TYPE = 0
CLASSIFICATION_TYPE = U
NORAD_CAT_ID   = 66592
ELEMENT_SET_NO = 999
REV_AT_EPOCH   = 420
BSTAR          = -.19104E-1
MEAN_MOTION_DOT = -.1032511E-1
MEAN_MOTION_DDOT = 0

CCSDS_OMM_VERS = 2.0
CREATION_DATE  = 
ORIGINATOR     = 

OBJECT_NAME    = STARLINK-36031
OBJECT_ID      = 2025-270F
CENTER_NAME    = EARTH
REF_FRAME      = TEME
TIME_SYSTEM    = UTC
MEAN_ELEMENT_THEORY = SGP/SGP4

EPOCH          = 2025-12-12T04:00:01.998720
MEAN_MOTION    = 15.50792214
ECCENTRICITY   = .0001797
INCLINATION    = 42.9997
RA_OF_ASC_NODE = 196.0657
ARG_OF_PERICENTER = 274.9536
MEAN_ANOMALY   = 159.2758

EPHEMERIS_TYPE = 0
CLASSIFICATION_TYPE = U
NORAD_CAT_ID   = 66593
ELEMENT_SET_NO = 999
REV_AT_EPOCH   = 430
BSTAR          = -.58276E-2
MEAN_MOTION_DOT = -.330707E-2
MEAN_MOTION_DDOT = 0

CCSDS_OMM_VERS = 2.0
CREATION_DATE  = 
ORIGINATOR     = 

OBJECT_NAME    = STARLINK-36032
OBJECT_ID      = 2025-270G
CENTER_NAME    = EARTH
REF_FRAME      = TEME
TIME_SYSTEM    = UTC
MEAN_ELEMENT_THEORY = SGP/SGP4

EPOCH          = 2025-12-12T04:00:01.998720
MEAN_MOTION    = 15.50543396
ECCENTRICITY   = .000197
INCLINATION    = 42.9999
RA_OF_ASC_NODE = 196.0608
ARG_OF_PERICENTER = 275.6463
MEAN_ANOMALY   = 160.4902

EPHEMERIS_TYPE = 0
CLASSIFICATION_TYPE = U
NORAD_CAT_ID   = 66594
ELEMENT_SET_NO = 999
REV_AT_EPOCH   = 404
BSTAR          = .6725E-3
MEAN_MOTION_DOT = .39259E-3
MEAN_MOTION_DDOT = 0

CCSDS_OMM_VERS = 2.0
CREATION_DATE  = 
ORIGINATOR     = 

OBJECT_NAME    = STARLINK-35711
OBJECT_ID      = 2025-270H
CENTER_NAME    = EARTH
REF_FRAME      = TEME
TIME_SYSTEM    = UTC
MEAN_ELEMENT_THEORY = SGP/SGP4

EPOCH          = 2025-12-12T04:00:01.998720
MEAN_MOTION    = 15.50525101
ECCENTRICITY   = .0001173
INCLINATION    = 42.9997
RA_OF_ASC_NODE = 196.0555
ARG_OF_PERICENTER = 261.7315
MEAN_ANOMALY   = 176.1924

EPHEMERIS_TYPE = 0
CLASSIFICATION_TYPE = U
NORAD_CAT_ID   = 66595
ELEMENT_SET_NO = 999
REV_AT_EPOCH   = 441
BSTAR          = .15916E-2
MEAN_MOTION_DOT = .93975E-3
MEAN_MOTION_DDOT = 0

CCSDS_OMM_VERS = 2.0
CREATION_DATE  = 
ORIGINATOR     = 

OBJECT_NAME    = STARLINK-35811
OBJECT_ID      = 2025-270J
CENTER_NAME    = EARTH
REF_FRAME      = TEME
TIME_SYSTEM    = UTC
MEAN_ELEMENT_THEORY = SGP/SGP4

EPOCH          = 2025-12-12T04:00:01.998720
MEAN_MOTION    = 15.47529413
ECCENTRICITY   = .0001728
INCLINATION    = 42.9995
RA_OF_ASC_NODE = 196.0605
ARG_OF_PERICENTER = 264.3988
MEAN_ANOMALY   = 171.8740

EPHEMERIS_TYPE = 0
CLASSIFICATION_TYPE = U
NORAD_CAT_ID   = 66596
ELEMENT_SET_NO = 999
REV_AT_EPOCH   = 441
BSTAR          = -.43243E-1
MEAN_MOTION_DOT = -.2030037E-1
MEAN_MOTION_DDOT = 0

CCSDS_OMM_VERS = 2.0
CREATION_DATE  = 
ORIGINATOR     = 

OBJECT_NAME    = STARLINK-35820
OBJECT_ID      = 2025-270K
CENTER_NAME    = EARTH
REF_FRAME      = TEME
TIME_SYSTEM    = UTC
MEAN_ELEMENT_THEORY = SGP/SGP4

EPOCH          = 2025-12-12T04:00:01.998720
MEAN_MOTION    = 15.50551687
ECCENTRICITY   = .0001927
INCLINATION    = 42.9996
RA_OF_ASC_NODE = 196.0460
ARG_OF_PERICENTER = 276.5208
MEAN_ANOMALY   = 165.3550

EPHEMERIS_TYPE = 0
CLASSIFICATION_TYPE = U
NORAD_CAT_ID   = 66597
ELEMENT_SET_NO = 999
REV_AT_EPOCH   = 441
BSTAR          = .10025E-2
MEAN_MOTION_DOT = .58855E-3
MEAN_MOTION_DDOT = 0

CCSDS_OMM_VERS = 2.0
CREATION_DATE  = 
ORIGINATOR     = 

OBJECT_NAME    = STARLINK-35981
OBJECT_ID      = 2025-270L
CENTER_NAME    = EARTH
REF_FRAME      = TEME
TIME_SYSTEM    = UTC
MEAN_ELEMENT_THEORY = SGP/SGP4

EPOCH          = 2025-12-12T04:00:01.998720
MEAN_MOTION    = 15.50482660
ECCENTRICITY   = .0001684
INCLINATION    = 42.9998
RA_OF_ASC_NODE = 196.0409
ARG_OF_PERICENTER = 269.5420
MEAN_ANOMALY   = 174.3325

EPHEMERIS_TYPE = 0
CLASSIFICATION_TYPE = U
NORAD_CAT_ID   = 66598
ELEMENT_SET_NO = 999
REV_AT_EPOCH   = 414
BSTAR          = .196E-2
MEAN_MOTION_DOT = .115964E-2
MEAN_MOTION_DDOT = 0

CCSDS_OMM_VERS = 2.0
CREATION_DATE  = 
ORIGINATOR     = 

OBJECT_NAME    = STARLINK-35930
OBJECT_ID      = 2025-270M
CENTER_NAME    = EARTH
REF_FRAME      = TEME
TIME_SYSTEM    = UTC
MEAN_ELEMENT_THEORY = SGP/SGP4

EPOCH          = 2025-12-12T04:00:01.998720
MEAN_MOTION    = 15.50566991
ECCENTRICITY   = .0000504
INCLINATION    = 42.9997
RA_OF_ASC_NODE = 196.0370
ARG_OF_PERICENTER = 329.8662
MEAN_ANOMALY   = 115.7931

EPHEMERIS_TYPE = 0
CLASSIFICATION_TYPE = U
NORAD_CAT_ID   = 66599
ELEMENT_SET_NO = 999
REV_AT_EPOCH   = 430
BSTAR          = .60909E-3
MEAN_MOTION_DOT = .35537E-3
MEAN_MOTION_DDOT = 0

CCSDS_OMM_VERS = 2.0
CREATION_DATE  = 
ORIGINATOR     = 

OBJECT_NAME    = STARLINK-35980
OBJECT_ID      = 2025-270N
CENTER_NAME    = EARTH
REF_FRAME      = TEME
TIME_SYSTEM    = UTC
MEAN_ELEMENT_THEORY = SGP/SGP4

EPOCH          = 2025-12-12T04:00:01.998720
MEAN_MOTION    = 15.50542336
ECCENTRICITY   = .0002384
INCLINATION    = 42.9998
RA_OF_ASC_NODE = 196.0319
ARG_OF_PERICENTER = 276.9291
MEAN_ANOMALY   = 170.7081

EPHEMERIS_TYPE = 0
CLASSIFICATION_TYPE = U
NORAD_CAT_ID   = 66600
ELEMENT_SET_NO = 999
REV_AT_EPOCH   = 420
BSTAR          = .70056E-3
MEAN_MOTION_DOT = .4092E-3
MEAN_MOTION_DDOT = 0

CCSDS_OMM_VERS = 2.0
CREATION_DATE  = 
ORIGINATOR     = 

OBJECT_NAME    = STARLINK-35978
OBJECT_ID      = 2025-270P
CENTER_NAME    = EARTH
REF_FRAME      = TEME
TIME_SYSTEM    = UTC
MEAN_ELEMENT_THEORY = SGP/SGP4

EPOCH          = 2025-12-12T04:00:01.998720
MEAN_MOTION    = 15.50537950
ECCENTRICITY   = .0001324
INCLINATION    = 42.9997
RA_OF_ASC_NODE = 196.0270
ARG_OF_PERICENTER = 286.7778
MEAN_ANOMALY   = 162.7908

EPHEMERIS_TYPE = 0
CLASSIFICATION_TYPE = U
NORAD_CAT_ID   = 66601
ELEMENT_SET_NO = 999
REV_AT_EPOCH   = 414
BSTAR          = .9599E-3
MEAN_MOTION_DOT = .56294E-3
MEAN_MOTION_DDOT = 0

